[{"OBJECT_NAME":"KUIPER-00179","OBJECT_ID":"2025-301D","EPOCH":"2026-03-09T22:00:01.999584","MEAN_MOTION":15.06426136,"ECCENTRICITY":0.00027009,"INCLINATION":51.8878,"RA_OF_ASC_NODE":65.7875,"ARG_OF_PERICENTER":79.7828,"MEAN_ANOMALY":141.5104,"EPHEMERIS_TYPE":0,"CLASSIFICATION_TYPE":"U","NORAD_CAT_ID":67136,"ELEMENT_SET_NO":999,"REV_AT_EPOCH":537,"BSTAR":-0.078767589,"MEAN_MOTION_DOT":-0.01086026,"MEAN_MOTION_DDOT":0},{"OBJECT_NAME":"COSMOS 1275 DEB","OBJECT_ID":"1981-053SU","EPOCH":"2026-03-07T05:03:30.717216","MEAN_MOTION":14.89624561,"ECCENTRICITY":0.00118771,"INCLINATION":82.854,"RA_OF_ASC_NODE":47.1752,"ARG_OF_PERICENTER":42.2712,"MEAN_ANOMALY":334.828,"EPHEMERIS_TYPE":0,"CLASSIFICATION_TYPE":"U","NORAD_CAT_ID":42180,"ELEMENT_SET_NO":999,"REV_AT_EPOCH":61350,"BSTAR":0.0079267176,"MEAN_MOTION_DOT":0.00076581,"MEAN_MOTION_DDOT":0}]
